$$SOE
2460154.500000000, A.D. 2023-Jul-29 00:00:00.0000, 4.652235938921148E+08, 6.431749779075140E+07, 5.869240912889533E+07,
2460161.500000000, A.D. 2023-Aug-05 00:00:00.0000, 4.623436616647670E+08, 7.504443691873473E+07, 5.838958623607744E+07,
2460168.500000000, A.D. 2023-Aug-12 00:00:00.0000, 4.592504079883222E+08, 8.573699514524835E+07, 5.805974465956907E+07,
2460175.500000000, A.D. 2023-Aug-19 00:00:00.0000, 4.559435818549197E+08, 9.638992712334019E+07, 5.770282250885521E+07,
2460182.500000000, A.D. 2023-Aug-26 00:00:00.0000, 4.524230950955485E+08, 1.069979358543631E+08, 5.731877797735284E+07,
2460189.500000000, A.D. 2023-Sep-02 00:00:00.0000, 4.486890265888762E+08, 1.175556790470512E+08, 5.690758991684892E+07,
2460196.500000000, A.D. 2023-Sep-09 00:00:00.0000, 4.447416262039867E+08, 1.280577756926076E+08, 5.646925836856227E+07,
2460203.500000000, A.D. 2023-Sep-16 00:00:00.0000, 4.405813186183096E+08, 1.384988127834924E+08, 5.600380502714834E+07,
2460210.500000000, A.D. 2023-Sep-23 00:00:00.0000, 4.362087073993938E+08, 1.488733524452006E+08, 5.551127361899259E+07,
2460217.500000000, A.D. 2023-Sep-30 00:00:00.0000, 4.316245789816747E+08, 1.591759406522161E+08, 5.499173031895744E+07,
2460224.500000000, A.D. 2023-Oct-07 00:00:00.0000, 4.268299041566165E+08, 1.694011169661093E+08, 5.444526437362028E+07,
2460231.500000000, A.D. 2023-Oct-14 00:00:00.0000, 4.218258380935233E+08, 1.795434219613971E+08, 5.387198856252379E+07,
2460238.500000000, A.D. 2023-Oct-21 00:00:00.0000, 4.166137220980079E+08, 1.895974039160860E+08, 5.327203932960089E+07,
2460245.500000000, A.D. 2023-Oct-28 00:00:00.0000, 4.111950856622359E+08, 1.995576269993259E+08, 5.264557689747956E+07,
2460252.500000000, A.D. 2023-Nov-04 00:00:00.0000, 4.055716475382499E+08, 2.094186801565058E+08, 5.199278541426420E+07,
2460259.500000000, A.D. 2023-Nov-11 00:00:00.0000, 3.997453159958792E+08, 2.191751860604131E+08, 5.131387306559333E+07,
2460266.500000000, A.D. 2023-Nov-18 00:00:00.0000, 3.937181884708794E+08, 2.288218100307816E+08, 5.060907212483446E+07,
2460273.500000000, A.D. 2023-Nov-25 00:00:00.0000, 3.874925506647993E+08, 2.383532689099472E+08, 4.987863893506829E+07,
2460280.500000000, A.D. 2023-Dec-02 00:00:00.0000, 3.810708751163127E+08, 2.477643398473411E+08, 4.912285381814638E+07,
2460287.500000000, A.D. 2023-Dec-09 00:00:00.0000, 3.744558193165622E+08, 2.570498688968618E+08, 4.834202089797056E+07,
2460294.500000000, A.D. 2023-Dec-16 00:00:00.0000, 3.676502236543027E+08, 2.662047794018315E+08, 4.753646781204967E+07,
2460301.500000000, A.D. 2023-Dec-23 00:00:00.0000, 3.606571095407962E+08, 2.752240808157928E+08, 4.670654533501951E+07,
2460308.500000000, A.D. 2023-Dec-30 00:00:00.0000, 3.534796763770103E+08, 2.841028789681706E+08, 4.585262712218955E+07,
2460315.500000000, A.D. 2024-Jan-06 00:00:00.0000, 3.461212955964410E+08, 2.928363853766566E+08, 4.497510954312603E+07,
2460322.500000000, A.D. 2024-Jan-13 00:00:00.0000, 3.385855049695228E+08, 3.014199237634984E+08, 4.407441116787817E+07,
2460329.500000000, A.D. 2024-Jan-20 00:00:00.0000, 3.308760044088486E+08, 3.098489368220622E+08, 4.315097204652148E+07,
2460336.500000000, A.D. 2024-Jan-27 00:00:00.0000, 3.229966512630291E+08, 3.181189938488977E+08, 4.220525302252728E+07,
2460343.500000000, A.D. 2024-Feb-03 00:00:00.0000, 3.149514546911898E+08, 3.262257982583342E+08, 4.123773504365489E+07,
2460350.500000000, A.D. 2024-Feb-10 00:00:00.0000, 3.067445694195125E+08, 3.341651946559712E+08, 4.024891842357357E+07,
2460357.500000000, A.D. 2024-Feb-17 00:00:00.0000, 2.983802890454864E+08, 3.419331754483498E+08, 3.923932204500291E+07,
2460364.500000000, A.D. 2024-Feb-24 00:00:00.0000, 2.898630389553335E+08, 3.495258869751707E+08, 3.820948250555295E+07,
2460371.500000000, A.D. 2024-Mar-02 00:00:00.0000, 2.811973689157782E+08, 3.569396351056587E+08, 3.715995320459776E+07,
2460378.500000000, A.D. 2024-Mar-09 00:00:00.0000, 2.723879455128831E+08, 3.641708902132729E+08, 3.609130335739702E+07,
2460385.500000000, A.D. 2024-Mar-16 00:00:00.0000, 2.634395448693271E+08, 3.712162917062901E+08, 3.500411692077588E+07,
2460392.500000000, A.D. 2024-Mar-23 00:00:00.0000, 2.543570455745654E+08, 3.780726532058593E+08, 3.389899153503124E+07,
2460399.500000000, A.D. 2024-Mar-30 00:00:00.0000, 2.451454196239462E+08, 3.847369683285078E+08, 3.277653768991816E+07,
2460406.500000000, A.D. 2024-Apr-06 00:00:00.0000, 2.358097216593151E+08, 3.912064136951737E+08, 3.163737782127088E+07,
2460413.500000000, A.D. 2024-Apr-13 00:00:00.0000, 2.263550801028656E+08, 3.974783499986446E+08, 3.048214508652472E+07,
2460420.500000000, A.D. 2024-Apr-20 00:00:00.0000, 2.167866892727135E+08, 4.035503238015258E+08, 2.931148213025272E+07,
2460427.500000000, A.D. 2024-Apr-27 00:00:00.0000, 2.071098010013563E+08, 4.094200695016441E+08, 2.812603993808639E+07,
2460434.500000000, A.D. 2024-May-04 00:00:00.0000, 1.973297158827140E+08, 4.150855107643287E+08, 2.692647671876621E+07,
2460441.500000000, A.D. 2024-May-11 00:00:00.0000, 1.874517744235303E+08, 4.205447613261235E+08, 2.571345678937551E+07,
2460448.500000000, A.D. 2024-May-18 00:00:00.0000, 1.774813482176413E+08, 4.257961252007625E+08, 2.448764946306169E+07,
2460455.500000000, A.D. 2024-May-25 00:00:00.0000, 1.674238312029601E+08, 4.308380962918802E+08, 2.324972794120532E+07,
2460462.500000000, A.D. 2024-Jun-01 00:00:00.0000, 1.572846310941956E+08, 4.356693573686129E+08, 2.200036820439154E+07,
2460469.500000000, A.D. 2024-Jun-08 00:00:00.0000, 1.470691612682292E+08, 4.402887783968434E+08, 2.074024788202640E+07,
2460476.500000000, A.D. 2024-Jun-15 00:00:00.0000, 1.367828335296176E+08, 4.446954147898408E+08, 1.947004511267325E+07,
2460483.500000000, A.D. 2024-Jun-22 00:00:00.0000, 1.264310507771759E+08, 4.488885067746570E+08, 1.819043758728597E+07,
2460490.500000000, A.D. 2024-Jun-29 00:00:00.0000, 1.160191974731427E+08, 4.528674780752179E+08, 1.690210182486683E+07,
2460497.500000000, A.D. 2024-Jul-06 00:00:00.0000, 1.055526305795974E+08, 4.566319314671847E+08, 1.560571223980594E+07,
2460504.500000000, A.D. 2024-Jul-13 00:00:00.0000, 9.503667293226294E+07, 4.601816440589944E+08, 1.430194005605975E+07,
2460511.500000000, A.D. 2024-Jul-20 00:00:00.0000, 8.447660708559628E+07, 4.635165634752478E+08, 1.299145234641576E+07,
2460518.500000000, A.D. 2024-Jul-27 00:00:00.0000, 7.387766898847701E+07, 4.666368040094089E+08, 1.167491118044910E+07,
2460525.500000000, A.D. 2024-Aug-03 00:00:00.0000, 6.324504177566957E+07, 4.695426423982236E+08, 1.035297282701302E+07,
2460532.500000000, A.D. 2024-Aug-10 00:00:00.0000, 5.258384985057484E+07, 4.722345132413216E+08, 9.026286996833742E+06,
2460539.500000000, A.D. 2024-Aug-17 00:00:00.0000, 4.189915331394050E+07, 4.747130041158209E+08, 7.695496123449564E+06,
2460546.500000000, A.D. 2024-Aug-24 00:00:00.0000, 3.119594277141352E+07, 4.769788503917014E+08, 6.361234678607076E+06,
2460553.500000000, A.D. 2024-Aug-31 00:00:00.0000, 2.047913463840470E+07, 4.790329297141687E+08, 5.024128506698728E+06,
2460560.500000000, A.D. 2024-Sep-07 00:00:00.0000, 9.753567308456711E+06, 4.808762563067446E+08, 3.684794154997647E+06,
2460567.500000000, A.D. 2024-Sep-14 00:00:00.0000, -9.760017307006989E+05, 4.825099761182414E+08, 2.343838272928745E+06,
2460574.500000000, A.D. 2024-Sep-21 00:00:00.0000, -1.170489986403591E+07, 4.839353632522373E+08, 1.001857299523890E+06,
2460581.500000000, A.D. 2024-Sep-28 00:00:00.0000, -2.242854489036660E+07, 4.851538144736416E+08, -3.405627806438506E+05,
2460588.500000000, A.D. 2024-Oct-05 00:00:00.0000, -3.314244847577000E+07, 4.861668418166926E+08, -1.682846950092942E+06,
2460595.500000000, A.D. 2024-Oct-12 00:00:00.0000, -4.384221788738025E+07, 4.869760662989470E+08, -3.024431664085925E+06,
2460602.500000000, A.D. 2024-Oct-19 00:00:00.0000, -5.452355776597658E+07, 4.875832124915814E+08, -4.364765212061256E+06,
2460609.500000000, A.D. 2024-Oct-26 00:00:00.0000, -6.518227197913077E+07, 4.879901031634660E+08, -5.703307998542815E+06,
2460616.500000000, A.D. 2024-Nov-02 00:00:00.0000, -7.581426530819984E+07, 4.881986538686695E+08, -7.039532780511379E+06,
2460623.500000000, A.D. 2024-Nov-09 00:00:00.0000, -8.641554488389155E+07, 4.882108675150959E+08, -8.372924869768023E+06,
2460630.500000000, A.D. 2024-Nov-16 00:00:00.0000, -9.698222135641183E+07, 4.880288289301943E+08, -9.702982304081887E+06,
2460637.500000000, A.D. 2024-Nov-23 00:00:00.0000, -1.075105097656980E+08, 4.876546993881202E+08, -1.102921599699804E+07,
2460644.500000000, A.D. 2024-Nov-30 00:00:00.0000, -1.179967299163535E+08, 4.870907110685625E+08, -1.235114989042166E+07,
2460651.500000000, A.D. 2024-Dec-07 00:00:00.0000, -1.284373058512571E+08, 4.863391618795135E+08, -1.366832111563206E+07,
2460658.500000000, A.D. 2024-Dec-14 00:00:00.0000, -1.388287651260969E+08, 4.854024118789687E+08, -1.498028000120741E+07,
2460665.500000000, A.D. 2024-Dec-21 00:00:00.0000, -1.491677402160030E+08, 4.842828800642769E+08, -1.628658981830275E+07,
2460672.500000000, A.D. 2024-Dec-28 00:00:00.0000, -1.594509700943480E+08, 4.829830385675710E+08, -1.758682668801737E+07,
2460679.500000000, A.D. 2025-Jan-04 00:00:00.0000, -1.696752994011519E+08, 4.815054066390812E+08, -1.888057969620198E+07,
2460686.500000000, A.D. 2025-Jan-11 00:00:00.0000, -1.798376770361546E+08, 4.798525460849684E+08, -2.016745091467577E+07,
2460693.500000000, A.D. 2025-Jan-18 00:00:00.0000, -1.899351551058780E+08, 4.780270572453946E+08, -2.144705532133296E+07,
2460700.500000000, A.D. 2025-Jan-25 00:00:00.0000, -1.999648879936594E+08, 4.760315750410497E+08, -2.271902068157718E+07,
2460707.500000000, A.D. 2025-Feb-01 00:00:00.0000, -2.099241313755024E+08, 4.738687650600539E+08, -2.398298741221428E+07,
2460714.500000000, A.D. 2025-Feb-08 00:00:00.0000, -2.198102411352266E+08, 4.715413197061391E+08, -2.523860843280321E+07,
2460721.500000000, A.D. 2025-Feb-15 00:00:00.0000, -2.296206721616085E+08, 4.690519543883274E+08, -2.648554900991848E+07,
$$EOE